1 28190U 04009A   18292.75236111 -.00000087  00000-0  00000-0 0  9997
2 28190  56.2136  26.5996 0093327  74.2668 202.2579  2.00572166106877
1 28190U 04009A   18293.46111583 -.00000084  00000-0  00000+0 0  9997
2 28190  56.2138  26.5717 0093308  74.2864 354.0139  2.00572149106887
1 28190U 04009A   18294.47334583 -.00000080  00000-0  00000+0 0  9992
2 28190  56.2141  26.5319 0093307  74.3235   4.8850  2.00572128106901
1 28190U 04009A   18294.47334583 -.00000080  00000-0  00000-0 0  9993
2 28190  56.2141  26.5319 0093307  74.3235   4.8850  2.00572128106912
1 28190U 04009A   18295.42561049 -.00000075  00000-0  00000+0 0  9991
2 28190  56.2144  26.4944 0093258  74.3462 332.4706  2.00572094106928
1 28190U 04009A   18296.73882236 -.00000069  00000-0  00000-0 0  9994
2 28190  56.2147  26.4427 0093191  74.3759 200.6806  2.00572039106951
1 28190U 04009A   18297.44847507 -.00000066  00000-0  00000+0 0  9991
2 28190  56.2149  26.4148 0093166  74.3964 353.0838  2.00572008106968
1 28190U 04009A   18298.44199247 -.00000062  00000-0  00000+0 0  9999
2 28190  56.2151  26.3756 0093116  74.4198 350.4561  2.00571963106985
1 28190U 04009A   18298.76318875 -.00000062  00000-0  00000-0 0  9995
2 28190  56.2152  26.3630 0093105  74.4249 222.3793  2.00571951106994
1 28190U 04009A   18299.50091177 -.00000061  00000-0  00000+0 0  9999
2 28190  56.2154  26.3339 0093089  74.4457  35.0511  2.00571921107001
1 28190U 04009A   18299.78021894 -.00000060  00000-0  00000-0 0  9998
2 28190  56.2154  26.3229 0093077  74.4521 236.7258  2.00571909107013
1 28190U 04009A   18300.46021462 -.00000061  00000-0  00000+0 0  9997
2 28190  56.2156  26.2961 0093043  74.4685   7.7182  2.00571879107020
1 28190U 04009A   18300.84463962 -.00000061  00000-0  00000-0 0  9995
2 28190  56.2157  26.2810 0093028  74.4778 285.2932  2.00571868107035
1 28190U 04009A   18301.44725896 -.00000063  00000-0  00000+0 0  9990
2 28190  56.2159  26.2572 0093006  74.4935   0.4147  2.00571843107042
1 28190U 04009A   18301.44725896 -.00000063  00000-0  00000-0 0  9991
2 28190  56.2159  26.2572 0093006  74.4935   0.4147  2.00571843107053
1 28190U 04009A   18301.73599771 -.00000064  00000-0  00000-0 0  9995
2 28190  56.2159  26.2458 0092999  74.5000 208.8995  2.00571835107056
1 28190U 04009A   18302.52442909 -.00000067  00000-0  00000+0 0  9995
2 28190  56.2161  26.2148 0092971  74.5203  58.1869  2.00571809107068
1 28190U 04009A   18303.32190351 -.00000072  00000-0  00000+0 0  9991
2 28190  56.2163  26.1834 0092949  74.5451 273.9994  2.00571791107089
1 28190U 04009A   18303.33851604 -.00000072  00000-0  00000+0 0  9997
2 28190  56.2168  26.1830 0093237  74.4549 286.0949  2.00572265107079
1 28190U 04009A   18306.44414664 -.00000090  00000-0  00000+0 0  9993
2 28190  56.2172  26.0603 0092830  74.6210   8.4209  2.00571746107142
1 28190U 04009A   18306.82492517 -.00000091  00000-0  00000-0 0  9990
2 28190  56.2173  26.0453 0092813  74.6302 283.3627  2.00571746107158
1 28190U 04009A   18307.30233510 -.00000093  00000-0  00000+0 0  9991
2 28190  56.2174  26.0265 0092795  74.6410 268.0782  2.00571745107161
1 28190U 04009A   18307.83001731 -.00000094  00000-0  00000-0 0  9999
2 28190  56.2175  26.0057 0092780  74.6555 289.0905  2.00571751107184
1 28190U 04009A   18308.50795963 -.00000095  00000-0  00000+0 0  9991
2 28190  56.2177  25.9790 0092765  74.6712  58.6007  2.00571756107184
1 28190U 04009A   18309.47283792 -.00000096  00000-0  00000+0 0  9991
2 28190  56.2180  25.9410 0092733  74.6952  35.2922  2.00571766107209
1 28190U 04009A   18309.81561015 -.00000095  00000-0  00000-0 0  9996
2 28190  56.2181  25.9275 0092722  74.7037 282.7913  2.00571770107217
1 28190U 04009A   18310.44127895 -.00000095  00000-0  00000+0 0  9990
2 28190  56.2182  25.9028 0092702  74.7174  14.5579  2.00571778107222
1 28190U 04009A   18311.38473991 -.00000094  00000-0  00000+0 0  9994
2 28190  56.2185  25.8657 0092674  74.7394 335.7864  2.00571792107247
1 28190U 04009A   18311.38473991 -.00000094  00000-0  00000-0 0  9995
2 28190  56.2185  25.8657 0092674  74.7394 335.7864  2.00571792107258
1 28190U 04009A   18312.44439594 -.00000094  00000-0  00000+0 0  9993
2 28190  56.2188  25.8240 0092634  74.7622  20.9156  2.00571805107262
1 28190U 04009A   18313.45291150 -.00000094  00000-0  00000+0 0  9999
2 28190  56.2191  25.7843 0092598  74.7856  29.1170  2.00571821107289
1 28190U 04009A   18314.70509175 -.00000094  00000-0  00000-0 0  9998
2 28190  56.2194  25.7350 0092553  74.8122 213.2594  2.00571831107314
1 28190U 04009A   18315.47445531 -.00000095  00000-0  00000+0 0  9998
2 28190  56.2196  25.7047 0092517  74.8229  48.7874  2.00571833107322
1 28190U 04009A   18315.71610140 -.00000095  00000-0  00000-0 0  9996
2 28190  56.2197  25.6952 0092503  74.8248 223.2723  2.00571837107331
1 28190U 04009A   18316.42821532 -.00000095  00000-0  00000+0 0  9993
2 28190  56.2199  25.6671 0092485  74.8417  17.4557  2.00571835107345
1 28190U 04009A   18316.80374610 -.00000095  00000-0  00000-0 0  9996
2 28190  56.2199  25.6523 0092470  74.8468 288.6122  2.00571836107364
1 28190U 04009A   18317.19981781 -.00000095  00000-0  00000+0 0  9991
2 28190  56.2200  25.6367 0092451  74.8526 214.6002  2.00571833107360
1 28190U 04009A   18318.75484742 -.00000092  00000-0  00000+0 0  9996
2 28190  56.2205  25.5755 0092406  74.8838 257.4181  2.00571816107398
1 28190U 04009A   18318.75484742 -.00000092  00000-0  00000-0 0  9997
2 28190  56.2205  25.5755 0092406  74.8838 257.4181  2.00571816107398
1 28190U 04009A   18320.41867743 -.00000086  00000-0  00000+0 0  9991
2 28190  56.2209  25.5100 0092357  74.9195  18.7935  2.00571782107429
1 28190U 04009A   18320.41867743 -.00000086  00000-0  00000-0 0  9992
2 28190  56.2209  25.5100 0092357  74.9195  18.7935  2.00571782107430
1 28190U 04009A   18320.88953417 -.00000084  00000-0  00000-0 0  9995
2 28190  56.2210  25.4914 0092343  74.9297 358.7774  2.00571770107448
1 28190U 04009A   18321.39331976 -.00000081  00000-0  00000+0 0  9998
2 28190  56.2212  25.4715 0092326  74.9406   2.5377  2.00571753107446
1 28190U 04009A   18321.39331976 -.00000081  00000-0  00000-0 0  9999
2 28190  56.2212  25.4715 0092326  74.9406   2.5377  2.00571753107457
1 28190U 04009A   18321.72951753 -.00000080  00000-0  00000-0 0  9996
2 28190  56.2212  25.4583 0092315  74.9450 245.2934  2.00571741107459
1 28190U 04009A   18322.91343615 -.00000073  00000-0  00000-0 0  9992
2 28190  56.2216  25.4117 0092285  74.9767  20.1402  2.00571696107485
1 28190U 04009A   18323.40208128 -.00000070  00000-0  00000+0 0  9992
2 28190  56.2217  25.3924 0092266  74.9845  12.9710  2.00571675107485
1 28190U 04009A   18323.92432965 -.00000067  00000-0  00000-0 0  9994
2 28190  56.2219  25.3718 0092241  74.9896  30.0684  2.00571650107504
1 28190U 04009A   18324.70134690 -.00000064  00000-0  00000+0 0  9991
2 28190  56.2221  25.3412 0092217  75.0033 231.1196  2.00571617107512
1 28190U 04009A   18325.48500929 -.00000060  00000-0  00000+0 0  9995
2 28190  56.2223  25.3103 0092189  75.0187  76.9673  2.00571582107526
1 28190U 04009A   18326.42005211 -.00000058  00000-0  00000+0 0  9991
2 28190  56.2225  25.2735 0092162  75.0388  32.1183  2.00571540107548
1 28190U 04009A   18327.43733692 -.00000057  00000-0  00000+0 0  9993
2 28190  56.2228  25.2334 0092132  75.0592  46.6538  2.00571494107564
1 28190U 04009A   18327.76716038 -.00000057  00000-0  00000-0 0  9995
2 28190  56.2229  25.2204 0092123  75.0645 284.8057  2.00571482107570
1 28190U 04009A   18328.44584719 -.00000058  00000-0  00000+0 0  9990
2 28190  56.2231  25.1936 0092105  75.0787  54.8542  2.00571454107585
1 28190U 04009A   18328.44584719 -.00000058  00000-0  00000-0 0  9991
2 28190  56.2231  25.1936 0092105  75.0787  54.8542  2.00571454107596
1 28190U 04009A   18328.68458101 -.00000058  00000-0  00000-0 0  9992
2 28190  56.2231  25.1842 0092100  75.0817 227.2348  2.00571446107592
1 28190U 04009A   18329.25469385 -.00000060  00000-0  00000+0 0  9994
2 28190  56.2233  25.1617 0092087  75.0967 278.8839  2.00571427107602
1 28190U 04009A   18329.25469385 -.00000060  00000-0  00000-0 0  9995
2 28190  56.2233  25.1617 0092087  75.0967 278.8839  2.00571427107602
1 28190U 04009A   18329.69982350 -.00000062  00000-0  00000-0 0  9997
2 28190  56.2234  25.1442 0092075  75.1042 240.2932  2.00571410107611
1 28190U 04009A   18330.40792935 -.00000065  00000-0  00000+0 0  9998
2 28190  56.2236  25.1162 0092053  75.1183  31.5845  2.00571388107623
1 28190U 04009A   18330.70909272 -.00000067  00000-0  00000-0 0  9998
2 28190  56.2237  25.1043 0092049  75.1235 249.0416  2.00571379107636
1 28190U 04009A   18331.28235192 -.00000070  00000-0  00000+0 0  9998
2 28190  56.2239  25.0817 0092040  75.1427 302.9584  2.00571366107642
1 28190U 04009A   18331.89034580 -.00000073  00000-0  00000-0 0  9997
2 28190  56.2241  25.0578 0092022  75.1533  21.9648  2.00571354107665
1 28190U 04009A   18332.24193933 -.00000075  00000-0  00000+0 0  9996
2 28190  56.2242  25.0439 0092017  75.1628 275.8320  2.00571349107662
1 28190U 04009A   18333.45575789 -.00000081  00000-0  00000+0 0  9990
2 28190  56.2245  24.9960 0091989  75.1904  72.2719  2.00571334107683
1 28190U 04009A   18333.68557167 -.00000082  00000-0  00000-0 0  9997
2 28190  56.2246  24.9870 0091985  75.1954 238.2095  2.00571334107697
1 28190U 04009A   18334.45144309 -.00000085  00000-0  00000+0 0  9995
2 28190  56.2248  24.9568 0091955  75.2028  71.2183  2.00571328107701
1 28190U 04009A   18334.75106953 -.00000086  00000-0  00000-0 0  9993
2 28190  56.2249  24.9450 0091948  75.2104 287.5632  2.00571329107723
1 28190U 04009A   18335.34216812 -.00000087  00000-0  00000+0 0  9995
2 28190  56.2250  24.9217 0091937  75.2251 354.3657  2.00571331107720
1 28190U 04009A   18335.70690400 -.00000087  00000-0  00000-0 0  9995
2 28190  56.2251  24.9073 0091931  75.2331 257.7241  2.00571332107731
